{
  "type": "FeatureCollection",
  "features": [
    {
      "type": "Feature",
      "properties": {
        "norad_id": 29937,
        "name": "FENGYUN 1C DEB",
        "group": "fengyun-1c-debris",
        "lat": -76.99577447123607,
        "lon": 53.00540140655275,
        "alt_km": 887.2736304058981,
        "timestamp": "2025-12-15T22:44:29.200302+00:00",
        "meta_object_name": "FENGYUN 1C DEB",
        "meta_object_id": "1999-025JK",
        "meta_epoch": "2025-12-15T07:50:26.811744",
        "meta_mean_motion": 14.04361456,
        "meta_eccentricity": 0.00323177,
        "meta_inclination": 98.8028,
        "meta_ra_of_asc_node": 10.2625,
        "meta_arg_of_pericenter": 14.5677,
        "meta_mean_anomaly": 8.2789,
        "meta_ephemeris_type": 0,
        "meta_classification_type": "U",
        "meta_norad_cat_id": 29937,
        "meta_element_set_no": 999,
        "meta_rev_at_epoch": 96972,
        "meta_bstar": -3.9941397e-05,
        "meta_mean_motion_dot": -1.07e-06,
        "meta_mean_motion_ddot": 0,
        "tle_line1": "1 29937U 99025JK  25349.32669921 -.00000107  00000+0 -39941-4 0  9995",
        "tle_line2": "2 29937  98.8028  10.2625 0032317  14.5677   8.2789 14.04361456969720"
      },
      "geometry": {
        "type": "Point",
        "coordinates": [
          53.00540140655275,
          -76.99577447123607
        ]
      }
    },
    {
      "type": "Feature",
      "properties": {
        "norad_id": 29938,
        "name": "FENGYUN 1C DEB",
        "group": "fengyun-1c-debris",
        "lat": -60.02749307655359,
        "lon": 144.29281275829845,
        "alt_km": 863.3928513117771,
        "timestamp": "2025-12-15T22:44:29.200312+00:00",
        "meta_object_name": "FENGYUN 1C DEB",
        "meta_object_id": "1999-025JL",
        "meta_epoch": "2025-12-14T23:43:04.735200",
        "meta_mean_motion": 14.07459982,
        "meta_eccentricity": 0.00327893,
        "meta_inclination": 98.8023,
        "meta_ra_of_asc_node": 338.9437,
        "meta_arg_of_pericenter": 304.3138,
        "meta_mean_anomaly": 119.194,
        "meta_ephemeris_type": 0,
        "meta_classification_type": "U",
        "meta_norad_cat_id": 29938,
        "meta_element_set_no": 999,
        "meta_rev_at_epoch": 97088,
        "meta_bstar": 0.00026858315,
        "meta_mean_motion_dot": 4.11e-06,
        "meta_mean_motion_ddot": 0,
        "tle_line1": "1 29938U 99025JL  25348.98824925  .00000411  00000+0  26858-3 0  9992",
        "tle_line2": "2 29938  98.8023 338.9437 0032789 304.3138 119.1940 14.07459982970887"
      },
      "geometry": {
        "type": "Point",
        "coordinates": [
          144.29281275829845,
          -60.02749307655359
        ]
      }
    },
    {
      "type": "Feature",
      "properties": {
        "norad_id": 29939,
        "name": "FENGYUN 1C DEB",
        "group": "fengyun-1c-debris",
        "lat": -72.04505142969788,
        "lon": 17.67601229141321,
        "alt_km": 903.8629471922077,
        "timestamp": "2025-12-15T22:44:29.200323+00:00",
        "meta_object_name": "FENGYUN 1C DEB",
        "meta_object_id": "1999-025JM",
        "meta_epoch": "2025-12-15T06:09:03.716064",
        "meta_mean_motion": 14.12085222,
        "meta_eccentricity": 0.00670722,
        "meta_inclination": 98.7098,
        "meta_ra_of_asc_node": 348.7718,
        "meta_arg_of_pericenter": 131.5026,
        "meta_mean_anomaly": 241.8845,
        "meta_ephemeris_type": 0,
        "meta_classification_type": "U",
        "meta_norad_cat_id": 29939,
        "meta_element_set_no": 999,
        "meta_rev_at_epoch": 97496,
        "meta_bstar": 4.643664e-05,
        "meta_mean_motion_dot": 4.5e-07,
        "meta_mean_motion_ddot": 0,
        "tle_line1": "1 29939U 99025JM  25349.25629301  .00000045  00000+0  46437-4 0  9994",
        "tle_line2": "2 29939  98.7098 348.7718 0067072 131.5026 241.8845 14.12085222974967"
      },
      "geometry": {
        "type": "Point",
        "coordinates": [
          17.67601229141321,
          -72.04505142969788
        ]
      }
    },
    {
      "type": "Feature",
      "properties": {
        "norad_id": 29940,
        "name": "FENGYUN 1C DEB",
        "group": "fengyun-1c-debris",
        "lat": 11.517251412179508,
        "lon": -178.68952410709423,
        "alt_km": 818.6176604190932,
        "timestamp": "2025-12-15T22:44:29.200333+00:00",
        "meta_object_name": "FENGYUN 1C DEB",
        "meta_object_id": "1999-025JN",
        "meta_epoch": "2025-12-15T06:46:58.033632",
        "meta_mean_motion": 14.18827403,
        "meta_eccentricity": 0.00747258,
        "meta_inclination": 98.6213,
        "meta_ra_of_asc_node": 358.8924,
        "meta_arg_of_pericenter": 92.6038,
        "meta_mean_anomaly": 280.3249,
        "meta_ephemeris_type": 0,
        "meta_classification_type": "U",
        "meta_norad_cat_id": 29940,
        "meta_element_set_no": 999,
        "meta_rev_at_epoch": 97524,
        "meta_bstar": 0.00062493457,
        "meta_mean_motion_dot": 1.294e-05,
        "meta_mean_motion_ddot": 0,
        "tle_line1": "1 29940U 99025JN  25349.28261613  .00001294  00000+0  62493-3 0  9993",
        "tle_line2": "2 29940  98.6213 358.8924 0074725  92.6038 280.3249 14.18827403975240"
      },
      "geometry": {
        "type": "Point",
        "coordinates": [
          -178.68952410709423,
          11.517251412179508
        ]
      }
    },
    {
      "type": "Feature",
      "properties": {
        "norad_id": 29942,
        "name": "FENGYUN 1C DEB",
        "group": "fengyun-1c-debris",
        "lat": 17.984713644905234,
        "lon": -121.40872367970506,
        "alt_km": 799.4384699583161,
        "timestamp": "2025-12-15T22:44:29.200343+00:00",
        "meta_object_name": "FENGYUN 1C DEB",
        "meta_object_id": "1999-025JQ",
        "meta_epoch": "2025-12-15T03:30:58.431168",
        "meta_mean_motion": 14.30421991,
        "meta_eccentricity": 0.00488835,
        "meta_inclination": 98.6372,
        "meta_ra_of_asc_node": 54.9678,
        "meta_arg_of_pericenter": 268.852,
        "meta_mean_anomaly": 90.7062,
        "meta_ephemeris_type": 0,
        "meta_classification_type": "U",
        "meta_norad_cat_id": 29942,
        "meta_element_set_no": 999,
        "meta_rev_at_epoch": 97903,
        "meta_bstar": 0.00059587841,
        "meta_mean_motion_dot": 1.526e-05,
        "meta_mean_motion_ddot": 0,
        "tle_line1": "1 29942U 99025JQ  25349.14650962  .00001526  00000+0  59588-3 0  9998",
        "tle_line2": "2 29942  98.6372  54.9678 0048883 268.8520  90.7062 14.30421991979030"
      },
      "geometry": {
        "type": "Point",
        "coordinates": [
          -121.40872367970506,
          17.984713644905234
        ]
      }
    },
    {
      "type": "Feature",
      "properties": {
        "norad_id": 29943,
        "name": "FENGYUN 1C DEB",
        "group": "fengyun-1c-debris",
        "lat": -51.58728044460289,
        "lon": 166.43754078984227,
        "alt_km": 842.8831615544277,
        "timestamp": "2025-12-15T22:44:29.200354+00:00",
        "meta_object_name": "FENGYUN 1C DEB",
        "meta_object_id": "1999-025JR",
        "meta_epoch": "2025-12-15T06:23:07.622880",
        "meta_mean_motion": 14.09671545,
        "meta_eccentricity": 0.00349709,
        "meta_inclination": 98.7268,
        "meta_ra_of_asc_node": 356.9459,
        "meta_arg_of_pericenter": 219.7395,
        "meta_mean_anomaly": 155.9675,
        "meta_ephemeris_type": 0,
        "meta_classification_type": "U",
        "meta_norad_cat_id": 29943,
        "meta_element_set_no": 999,
        "meta_rev_at_epoch": 97342,
        "meta_bstar": 4.8647064e-05,
        "meta_mean_motion_dot": 4.3e-07,
        "meta_mean_motion_ddot": 0,
        "tle_line1": "1 29943U 99025JR  25349.26606045  .00000043  00000+0  48647-4 0  9993",
        "tle_line2": "2 29943  98.7268 356.9459 0034970 219.7395 155.9675 14.09671545973424"
      },
      "geometry": {
        "type": "Point",
        "coordinates": [
          166.43754078984227,
          -51.58728044460289
        ]
      }
    },
    {
      "type": "Feature",
      "properties": {
        "norad_id": 29944,
        "name": "FENGYUN 1C DEB",
        "group": "fengyun-1c-debris",
        "lat": -39.08262290620228,
        "lon": 97.06054047120689,
        "alt_km": 495.8334007729227,
        "timestamp": "2025-12-15T22:44:29.200364+00:00",
        "meta_object_name": "FENGYUN 1C DEB",
        "meta_object_id": "1999-025JS",
        "meta_epoch": "2025-12-15T08:50:11.265216",
        "meta_mean_motion": 14.87560888,
        "meta_eccentricity": 0.01664339,
        "meta_inclination": 99.003,
        "meta_ra_of_asc_node": 283.8019,
        "meta_arg_of_pericenter": 223.5579,
        "meta_mean_anomaly": 135.2393,
        "meta_ephemeris_type": 0,
        "meta_classification_type": "U",
        "meta_norad_cat_id": 29944,
        "meta_element_set_no": 999,
        "meta_rev_at_epoch": 493,
        "meta_bstar": 0.00054845326,
        "meta_mean_motion_dot": 6.351e-05,
        "meta_mean_motion_ddot": 0,
        "tle_line1": "1 29944U 99025JS  25349.36818594  .00006351  00000+0  54845-3 0  9993",
        "tle_line2": "2 29944  99.0030 283.8019 0166433 223.5579 135.2393 14.87560888  4935"
      },
      "geometry": {
        "type": "Point",
        "coordinates": [
          97.06054047120689,
          -39.08262290620228
        ]
      }
    }
  ]
}